[
    {
        "Altitude(m)": 607895.8288154901,
        "Argument of Periapsis(deg)": 0.0,
        "Eccentricity": 0.0,
        "Inclination(deg)": 60.0,
        "Latitude(deg)": 40.998370553776795,
        "Longitude(deg)": 20.08856069514246,
        "Mean Anomaly(deg)": -229.09089999999998,
        "RAAN(deg)": 330.0,
        "Satellite Name": "Test1 1460",
        "Satellite Number": 1460,
        "Semi-Major Axis(m)": 6980739.136638005,
        "Time(s)": 0
    },
    {
        "Altitude(m)": 607795.1419443348,
        "Argument of Periapsis(deg)": 0.00010418945913296404,
        "Eccentricity": 0.0,
        "Inclination(deg)": 60.0,
        "Latitude(deg)": 40.5306956669817,
        "Longitude(deg)": 20.58515615074916,
        "Mean Anomaly(deg)": -228.47079385453813,
        "RAAN(deg)": 329.9995799508602,
        "Satellite Name": "Test1 1460",
        "Satellite Number": 1460,
        "Semi-Major Axis(m)": 6980739.136638005,
        "Time(s)": 10
    },
    {
        "Altitude(m)": 607694.6306126341,
        "Argument of Periapsis(deg)": 0.0002083789182659281,
        "Eccentricity": 0.0,
        "Inclination(deg)": 60.0,
        "Latitude(deg)": 40.06051081431428,
        "Longitude(deg)": 21.07431072084468,
        "Mean Anomaly(deg)": -227.85068770907628,
        "RAAN(deg)": 329.9991599017205,
        "Satellite Name": "Test1 1460",
        "Satellite Number": 1460,
        "Semi-Major Axis(m)": 6980739.136638005,
        "Time(s)": 20
    },
    {
        "Altitude(m)": 607594.3585190005,
        "Argument of Periapsis(deg)": 0.00031256837739889213,
        "Eccentricity": 0.0,
        "Inclination(deg)": 60.0,
        "Latitude(deg)": 39.58788956985698,
        "Longitude(deg)": 21.556210011015608,
        "Mean Anomaly(deg)": -227.2305815636145,
        "RAAN(deg)": 329.9987398525808,
        "Satellite Name": "Test1 1460",
        "Satellite Number": 1460,
        "Semi-Major Axis(m)": 6980739.136638005,
        "Time(s)": 30
    },
    {
        "Altitude(m)": 607494.3894623953,
        "Argument of Periapsis(deg)": 0.0004167578365318562,
        "Eccentricity": 0.0,
        "Inclination(deg)": 60.0,
        "Latitude(deg)": 39.11290326752813,
        "Longitude(deg)": 22.031036586972014,
        "Mean Anomaly(deg)": -226.61047541815265,
        "RAAN(deg)": 329.998319803441,
        "Satellite Name": "Test1 1460",
        "Satellite Number": 1460,
        "Semi-Major Axis(m)": 6980739.136638005,
        "Time(s)": 40
    },
    {
        "Altitude(m)": 607394.7873102436,
        "Argument of Periapsis(deg)": 0.0005209472956648203,
        "Eccentricity": 0.0,
        "Inclination(deg)": 60.0,
        "Latitude(deg)": 38.63562107444033,
        "Longitude(deg)": 22.498968954097315,
        "Mean Anomaly(deg)": -225.9903692726908,
        "RAAN(deg)": 329.9978997543013,
        "Satellite Name": "Test1 1460",
        "Satellite Number": 1460,
        "Semi-Major Axis(m)": 6980739.136638005,
        "Time(s)": 50
    },
    {
        "Altitude(m)": 607295.6159664392,
        "Argument of Periapsis(deg)": 0.0006251367547977843,
        "Eccentricity": 0.0,
        "Inclination(deg)": 60.0,
        "Latitude(deg)": 38.15611006272156,
        "Longitude(deg)": 22.960182060689657,
        "Mean Anomaly(deg)": -225.37026312722904,
        "RAAN(deg)": 329.99747970516154,
        "Satellite Name": "Test1 1460",
        "Satellite Number": 1460,
        "Semi-Major Axis(m)": 6980739.136638005,
        "Time(s)": 60
    },
    {
        "Altitude(m)": 607196.9393392559,
        "Argument of Periapsis(deg)": 0.0007293262139307483,
        "Eccentricity": 0.0,
        "Inclination(deg)": 60.0,
        "Latitude(deg)": 37.674435279728755,
        "Longitude(deg)": 23.414847810888517,
        "Mean Anomaly(deg)": -224.75015698176713,
        "RAAN(deg)": 329.9970596560218,
        "Satellite Name": "Test1 1460",
        "Satellite Number": 1460,
        "Semi-Major Axis(m)": 6980739.136638005,
        "Time(s)": 70
    },
    {
        "Altitude(m)": 607098.8213092607,
        "Argument of Periapsis(deg)": 0.0008335156730637124,
        "Eccentricity": 0.0,
        "Inclination(deg)": 60.0,
        "Latitude(deg)": 37.19065981659859,
        "Longitude(deg)": 23.86313407336534,
        "Mean Anomaly(deg)": -224.13005083630537,
        "RAAN(deg)": 329.99663960688207,
        "Satellite Name": "Test1 1460",
        "Satellite Number": 1460,
        "Semi-Major Axis(m)": 6980739.136638005,
        "Time(s)": 80
    },
    {
        "Altitude(m)": 607001.3256971353,
        "Argument of Periapsis(deg)": 0.0009377051321966765,
        "Eccentricity": 0.0,
        "Inclination(deg)": 60.0,
        "Latitude(deg)": 36.70484487510002,
        "Longitude(deg)": 24.30520521056719,
        "Mean Anomaly(deg)": -223.50994469084353,
        "RAAN(deg)": 329.9962195577423,
        "Satellite Name": "Test1 1460",
        "Satellite Number": 1460,
        "Semi-Major Axis(m)": 6980739.136638005,
        "Time(s)": 90
    },
    {
        "Altitude(m)": 606904.5162314867,
        "Argument of Periapsis(deg)": 0.0010418945913296407,
        "Eccentricity": 0.0,
        "Inclination(deg)": 60.0,
        "Latitude(deg)": 36.21704983276006,
        "Longitude(deg)": 24.741222614754033,
        "Mean Anomaly(deg)": -222.88983854538165,
        "RAAN(deg)": 329.99579950860254,
        "Satellite Name": "Test1 1460",
        "Satellite Number": 1460,
        "Semi-Major Axis(m)": 6980739.136638005,
        "Time(s)": 100
    },
    {
        "Altitude(m)": 606808.456516674,
        "Argument of Periapsis(deg)": 0.0011460840504626045,
        "Eccentricity": 0.0,
        "Inclination(deg)": 60.0,
        "Latitude(deg)": 35.7273323062412,
        "Longitude(deg)": 25.17134373714821,
        "Mean Anomaly(deg)": -222.2697323999199,
        "RAAN(deg)": 329.99537945946287,
        "Satellite Name": "Test1 1460",
        "Satellite Number": 1460,
        "Semi-Major Axis(m)": 6980739.136638005,
        "Time(s)": 110
    },
    {
        "Altitude(m)": 606713.2100005967,
        "Argument of Periapsis(deg)": 0.0012502735095955685,
        "Eccentricity": 0.0,
        "Inclination(deg)": 60.0,
        "Latitude(deg)": 35.23574821296814,
        "Longitude(deg)": 25.59572263520386,
        "Mean Anomaly(deg)": -221.649626254458,
        "RAAN(deg)": 329.9949594103231,
        "Satellite Name": "Test1 1460",
        "Satellite Number": 1460,
        "Semi-Major Axis(m)": 6980739.136638005,
        "Time(s)": 120
    },
    {
        "Altitude(m)": 606618.8399425427,
        "Argument of Periapsis(deg)": 0.0013544629687285324,
        "Eccentricity": 0.0,
        "Inclination(deg)": 60.0,
        "Latitude(deg)": 34.7423518310022,
        "Longitude(deg)": 26.01451052444488,
        "Mean Anomaly(deg)": -221.02952010899628,
        "RAAN(deg)": 329.99453936118334,
        "Satellite Name": "Test1 1460",
        "Satellite Number": 1460,
        "Semi-Major Axis(m)": 6980739.136638005,
        "Time(s)": 130
    },
    {
        "Altitude(m)": 606525.4093810621,
        "Argument of Periapsis(deg)": 0.0014586524278614966,
        "Eccentricity": 0.0,
        "Inclination(deg)": 60.0,
        "Latitude(deg)": 34.24719585716527,
        "Longitude(deg)": 26.427854821384198,
        "Mean Anomaly(deg)": -220.4094139635344,
        "RAAN(deg)": 329.99411931204355,
        "Satellite Name": "Test1 1460",
        "Satellite Number": 1460,
        "Semi-Major Axis(m)": 6980739.136638005,
        "Time(s)": 140
    },
    {
        "Altitude(m)": 606432.9811018739,
        "Argument of Periapsis(deg)": 0.0015628418869944607,
        "Eccentricity": 0.0,
        "Inclination(deg)": 60.0,
        "Latitude(deg)": 33.75033146343505,
        "Longitude(deg)": 26.835899702708424,
        "Mean Anomaly(deg)": -219.7893078180725,
        "RAAN(deg)": 329.9936992629039,
        "Satellite Name": "Test1 1460",
        "Satellite Number": 1460,
        "Semi-Major Axis(m)": 6980739.136638005,
        "Time(s)": 150
    },
    {
        "Altitude(m)": 606341.617605886,
        "Argument of Periapsis(deg)": 0.0016670313461274247,
        "Eccentricity": 0.0,
        "Inclination(deg)": 60.0,
        "Latitude(deg)": 33.251808351624085,
        "Longitude(deg)": 27.238786667347608,
        "Mean Anomaly(deg)": -219.16920167261074,
        "RAAN(deg)": 329.99327921376414,
        "Satellite Name": "Test1 1460",
        "Satellite Number": 1460,
        "Semi-Major Axis(m)": 6980739.136638005,
        "Time(s)": 160
    },
    {
        "Altitude(m)": 606251.381077259,
        "Argument of Periapsis(deg)": 0.0017712208052603888,
        "Eccentricity": 0.0,
        "Inclination(deg)": 60.0,
        "Latitude(deg)": 32.751674806364605,
        "Longitude(deg)": 27.63665358809416,
        "Mean Anomaly(deg)": -218.5490955271489,
        "RAAN(deg)": 329.99285916462435,
        "Satellite Name": "Test1 1460",
        "Satellite Number": 1460,
        "Semi-Major Axis(m)": 6980739.136638005,
        "Time(s)": 170
    },
    {
        "Altitude(m)": 606162.3333515929,
        "Argument of Periapsis(deg)": 0.001875410264393353,
        "Eccentricity": 0.0,
        "Inclination(deg)": 60.0,
        "Latitude(deg)": 32.24997774643112,
        "Longitude(deg)": 28.029635278100134,
        "Mean Anomaly(deg)": -217.92898938168705,
        "RAAN(deg)": 329.9924391154846,
        "Satellite Name": "Test1 1460",
        "Satellite Number": 1460,
        "Semi-Major Axis(m)": 6980739.136638005,
        "Time(s)": 180
    },
    {
        "Altitude(m)": 606074.5358842119,
        "Argument of Periapsis(deg)": 0.0019795997235263173,
        "Eccentricity": 0.0,
        "Inclination(deg)": 60.0,
        "Latitude(deg)": 31.74676277442777,
        "Longitude(deg)": 28.417864059004668,
        "Mean Anomaly(deg)": -217.30888323622526,
        "RAAN(deg)": 329.99201906634494,
        "Satellite Name": "Test1 1460",
        "Satellite Number": 1460,
        "Semi-Major Axis(m)": 6980739.136638005,
        "Time(s)": 190
    }
]